{
  "norad_id": 45237,
  "name": "STARLINK-1270",
  "history": [
    {
      "epoch": "2026-03-28T18:01:25.929120Z",
      "apogee_km": 417.9554233266708,
      "perigee_km": 415.6369921161968,
      "latitude_deg": -3.4780953775857185e-05,
      "longitude_deg": 159.7655861069327,
      "height_km": 418.7223649734786,
      "semi_major_axis_km": 6794.933207721434,
      "eccentricity": 0.0001706,
      "inclination_deg": 53.0466,
      "raan_deg": 256.2906,
      "arg_perigee_deg": 207.2915,
      "mean_anomaly_deg": 152.8003,
      "mean_motion_rev_day": 15.49976001
    }
  ]
}